[
  {
    "OBJECT_NAME": "STARLINK-34049",
    "OBJECT_ID": "25102W",
    "EPOCH": "2025-11-11T07:06:47.808288",
    "MEAN_MOTION": 14.983429,
    "ECCENTRICITY": 0.0003144,
    "INCLINATION": 70.0016,
    "RA_OF_ASC_NODE": 53.1454,
    "ARG_OF_PERICENTER": 267.7004,
    "MEAN_ANOMALY": 92.3795,
    "EPHEMERIS_TYPE": 0,
    "CLASSIFICATION_TYPE": "U",
    "NORAD_CAT_ID": 64042,
    "ELEMENT_SET_NO": 999,
    "REV_AT_EPOCH": 2821,
    "BSTAR": 0.00055169,
    "MEAN_MOTION_DOT": 6.498e-05,
    "MEAN_MOTION_DDOT": 0.0,
    "TLE_LINE1": "1 64042U 25102W   25315.29638667  .00006498  00000+0  55169-3 0  9994",
    "TLE_LINE2": "2 64042  70.0016  53.1454 0003144 267.7004  92.3795 14.98342900 28210",
    "COMMENT": "Grouped by shell and plane from TLE"
  },
  {
    "OBJECT_NAME": "STARLINK-34096",
    "OBJECT_ID": "25102X",
    "EPOCH": "2025-11-11T06:42:47.087424",
    "MEAN_MOTION": 14.98310704,
    "ECCENTRICITY": 0.0003764,
    "INCLINATION": 70.0019,
    "RA_OF_ASC_NODE": 53.0865,
    "ARG_OF_PERICENTER": 277.2322,
    "MEAN_ANOMALY": 82.8409,
    "EPHEMERIS_TYPE": 0,
    "CLASSIFICATION_TYPE": "U",
    "NORAD_CAT_ID": 64043,
    "ELEMENT_SET_NO": 999,
    "REV_AT_EPOCH": 2810,
    "BSTAR": 0.0021653,
    "MEAN_MOTION_DOT": 0.00025827,
    "MEAN_MOTION_DDOT": 0.0,
    "TLE_LINE1": "1 64043U 25102X   25315.27971166  .00025827  00000+0  21653-2 0  9994",
    "TLE_LINE2": "2 64043  70.0019  53.0865 0003764 277.2322  82.8409 14.98310704 28107",
    "COMMENT": "Grouped by shell and plane from TLE"
  },
  {
    "OBJECT_NAME": "STARLINK-34081",
    "OBJECT_ID": "25102Y",
    "EPOCH": "2025-11-11T06:54:46.537632",
    "MEAN_MOTION": 14.98351238,
    "ECCENTRICITY": 0.000295,
    "INCLINATION": 70.0023,
    "RA_OF_ASC_NODE": 53.1152,
    "ARG_OF_PERICENTER": 265.0822,
    "MEAN_ANOMALY": 95.0,
    "EPHEMERIS_TYPE": 0,
    "CLASSIFICATION_TYPE": "U",
    "NORAD_CAT_ID": 64044,
    "ELEMENT_SET_NO": 999,
    "REV_AT_EPOCH": 2815,
    "BSTAR": 0.00078909,
    "MEAN_MOTION_DOT": 9.34e-05,
    "MEAN_MOTION_DDOT": 0.0,
    "TLE_LINE1": "1 64044U 25102Y   25315.28803863  .00009340  00000+0  78909-3 0  9993",
    "TLE_LINE2": "2 64044  70.0023  53.1152 0002950 265.0822  95.0000 14.98351238 28154",
    "COMMENT": "Grouped by shell and plane from TLE"
  },
  {
    "OBJECT_NAME": "STARLINK-34033",
    "OBJECT_ID": "25102Z",
    "EPOCH": "2025-11-11T06:18:42.459552",
    "MEAN_MOTION": 14.98343381,
    "ECCENTRICITY": 0.0003193,
    "INCLINATION": 70.0019,
    "RA_OF_ASC_NODE": 53.0276,
    "ARG_OF_PERICENTER": 271.404,
    "MEAN_ANOMALY": 88.6753,
    "EPHEMERIS_TYPE": 0,
    "CLASSIFICATION_TYPE": "U",
    "NORAD_CAT_ID": 64045,
    "ELEMENT_SET_NO": 999,
    "REV_AT_EPOCH": 2814,
    "BSTAR": 0.00067566,
    "MEAN_MOTION_DOT": 7.981e-05,
    "MEAN_MOTION_DDOT": 0.0,
    "TLE_LINE1": "1 64045U 25102Z   25315.26299143  .00007981  00000+0  67566-3 0  9998",
    "TLE_LINE2": "2 64045  70.0019  53.0276 0003193 271.4040  88.6753 14.98343381 28141",
    "COMMENT": "Grouped by shell and plane from TLE"
  },
  {
    "OBJECT_NAME": "STARLINK-33952",
    "OBJECT_ID": "25102AA",
    "EPOCH": "2025-11-11T06:06:41.153472",
    "MEAN_MOTION": 14.98345994,
    "ECCENTRICITY": 0.0002975,
    "INCLINATION": 70.0019,
    "RA_OF_ASC_NODE": 52.9982,
    "ARG_OF_PERICENTER": 266.8443,
    "MEAN_ANOMALY": 93.2375,
    "EPHEMERIS_TYPE": 0,
    "CLASSIFICATION_TYPE": "U",
    "NORAD_CAT_ID": 64046,
    "ELEMENT_SET_NO": 999,
    "REV_AT_EPOCH": 2821,
    "BSTAR": 0.00068273,
    "MEAN_MOTION_DOT": 8.066e-05,
    "MEAN_MOTION_DDOT": 0.0,
    "TLE_LINE1": "1 64046U 25102AA  25315.25464298  .00008066  00000+0  68273-3 0  9994",
    "TLE_LINE2": "2 64046  70.0019  52.9982 0002975 266.8443  93.2375 14.98345994 28218",
    "COMMENT": "Grouped by shell and plane from TLE"
  },
  {
    "OBJECT_NAME": "STARLINK-33961",
    "OBJECT_ID": "25102AB",
    "EPOCH": "2025-11-11T06:30:43.789824",
    "MEAN_MOTION": 14.9835049,
    "ECCENTRICITY": 0.0002953,
    "INCLINATION": 70.0035,
    "RA_OF_ASC_NODE": 53.056,
    "ARG_OF_PERICENTER": 271.2783,
    "MEAN_ANOMALY": 88.8038,
    "EPHEMERIS_TYPE": 0,
    "CLASSIFICATION_TYPE": "U",
    "NORAD_CAT_ID": 64047,
    "ELEMENT_SET_NO": 999,
    "REV_AT_EPOCH": 2809,
    "BSTAR": 0.0011183,
    "MEAN_MOTION_DOT": 0.00013283,
    "MEAN_MOTION_DDOT": 0.0,
    "TLE_LINE1": "1 64047U 25102AB  25315.27134016  .00013283  00000+0  11183-2 0  9993",
    "TLE_LINE2": "2 64047  70.0035  53.0560 0002953 271.2783  88.8038 14.98350490 28093",
    "COMMENT": "Grouped by shell and plane from TLE"
  }
]